{
  "type": "FeatureCollection",
  "features": [
    {
      "type": "Feature",
      "properties": {
        "norad_id": 34088,
        "name": "IRIDIUM 33 DEB",
        "group": "iridium-33-debris",
        "lat": 34.10171070517646,
        "lon": -158.4679783525259,
        "alt_km": 584.5673419345203,
        "timestamp": "2025-12-27T09:28:56.862346+00:00",
        "meta_object_name": "IRIDIUM 33 DEB",
        "meta_object_id": "1997-051CX",
        "meta_epoch": "2025-12-27T02:38:55.250880",
        "meta_mean_motion": 14.92046916,
        "meta_eccentricity": 0.0007215,
        "meta_inclination": 86.3846,
        "meta_ra_of_asc_node": 24.1166,
        "meta_arg_of_pericenter": 132.7861,
        "meta_mean_anomaly": 284.4811,
        "meta_ephemeris_type": 0,
        "meta_classification_type": "U",
        "meta_norad_cat_id": 34088,
        "meta_element_set_no": 999,
        "meta_rev_at_epoch": 88956,
        "meta_bstar": 0.0029256,
        "meta_mean_motion_dot": 0.0002981,
        "meta_mean_motion_ddot": 0,
        "tle_line1": "1 34088U 97051CX  25361.11036170  .00029810  00000+0  29256-2 0  9996",
        "tle_line2": "2 34088  86.3846  24.1166 0007215 132.7861 284.4811 14.92046916889569"
      },
      "geometry": {
        "type": "Point",
        "coordinates": [
          -158.4679783525259,
          34.10171070517646
        ]
      }
    },
    {
      "type": "Feature",
      "properties": {
        "norad_id": 34091,
        "name": "IRIDIUM 33 DEB",
        "group": "iridium-33-debris",
        "lat": -18.153143255767233,
        "lon": -118.68132510307113,
        "alt_km": 607.5900282950543,
        "timestamp": "2025-12-27T09:28:56.862356+00:00",
        "meta_object_name": "IRIDIUM 33 DEB",
        "meta_object_id": "1997-051DA",
        "meta_epoch": "2025-12-27T03:43:50.479104",
        "meta_mean_motion": 14.82901423,
        "meta_eccentricity": 0.0034302,
        "meta_inclination": 86.3407,
        "meta_ra_of_asc_node": 60.2263,
        "meta_arg_of_pericenter": 241.6733,
        "meta_mean_anomaly": 118.1028,
        "meta_ephemeris_type": 0,
        "meta_classification_type": "U",
        "meta_norad_cat_id": 34091,
        "meta_element_set_no": 999,
        "meta_rev_at_epoch": 88080,
        "meta_bstar": 0.0057593,
        "meta_mean_motion_dot": 0.00047447,
        "meta_mean_motion_ddot": 0,
        "tle_line1": "1 34091U 97051DA  25361.15544536  .00047447  00000+0  57593-2 0  9995",
        "tle_line2": "2 34091  86.3407  60.2263 0034302 241.6733 118.1028 14.82901423880803"
      },
      "geometry": {
        "type": "Point",
        "coordinates": [
          -118.68132510307113,
          -18.153143255767233
        ]
      }
    },
    {
      "type": "Feature",
      "properties": {
        "norad_id": 34097,
        "name": "IRIDIUM 33 DEB",
        "group": "iridium-33-debris",
        "lat": 75.52575014928904,
        "lon": 160.0216414042858,
        "alt_km": 818.3940653179525,
        "timestamp": "2025-12-27T09:28:56.862367+00:00",
        "meta_object_name": "IRIDIUM 33 DEB",
        "meta_object_id": "1997-051DG",
        "meta_epoch": "2025-12-26T22:57:25.330752",
        "meta_mean_motion": 14.34897502,
        "meta_eccentricity": 0.0081165,
        "meta_inclination": 86.2009,
        "meta_ra_of_asc_node": 355.1315,
        "meta_arg_of_pericenter": 315.5596,
        "meta_mean_anomaly": 43.9106,
        "meta_ephemeris_type": 0,
        "meta_classification_type": "U",
        "meta_norad_cat_id": 34097,
        "meta_element_set_no": 999,
        "meta_rev_at_epoch": 87323,
        "meta_bstar": 0.0019362,
        "meta_mean_motion_dot": 5.728e-05,
        "meta_mean_motion_ddot": 0,
        "tle_line1": "1 34097U 97051DG  25360.95654318  .00005728  00000+0  19362-2 0  9996",
        "tle_line2": "2 34097  86.2009 355.1315 0081165 315.5596  43.9106 14.34897502873237"
      },
      "geometry": {
        "type": "Point",
        "coordinates": [
          160.0216414042858,
          75.52575014928904
        ]
      }
    },
    {
      "type": "Feature",
      "properties": {
        "norad_id": 34145,
        "name": "IRIDIUM 33 DEB",
        "group": "iridium-33-debris",
        "lat": 47.9494887108818,
        "lon": -29.789086524841824,
        "alt_km": 706.8937880307067,
        "timestamp": "2025-12-27T09:28:56.862378+00:00",
        "meta_object_name": "IRIDIUM 33 DEB",
        "meta_object_id": "1997-051DY",
        "meta_epoch": "2025-12-27T02:36:09.705888",
        "meta_mean_motion": 14.42400271,
        "meta_eccentricity": 0.0055377,
        "meta_inclination": 86.2127,
        "meta_ra_of_asc_node": 326.1271,
        "meta_arg_of_pericenter": 48.2173,
        "meta_mean_anomaly": 312.3739,
        "meta_ephemeris_type": 0,
        "meta_classification_type": "U",
        "meta_norad_cat_id": 34145,
        "meta_element_set_no": 999,
        "meta_rev_at_epoch": 87845,
        "meta_bstar": 0.0016358,
        "meta_mean_motion_dot": 5.529e-05,
        "meta_mean_motion_ddot": 0,
        "tle_line1": "1 34145U 97051DY  25361.10844567  .00005529  00000+0  16358-2 0  9996",
        "tle_line2": "2 34145  86.2127 326.1271 0055377  48.2173 312.3739 14.42400271878454"
      },
      "geometry": {
        "type": "Point",
        "coordinates": [
          -29.789086524841824,
          47.9494887108818
        ]
      }
    },
    {
      "type": "Feature",
      "properties": {
        "norad_id": 34146,
        "name": "IRIDIUM 33 DEB",
        "group": "iridium-33-debris",
        "lat": 41.194315138716945,
        "lon": -13.41372992136741,
        "alt_km": 737.5726471030466,
        "timestamp": "2025-12-27T09:28:56.862389+00:00",
        "meta_object_name": "IRIDIUM 33 DEB",
        "meta_object_id": "1997-051DZ",
        "meta_epoch": "2025-12-26T05:10:53.931072",
        "meta_mean_motion": 14.49135058,
        "meta_eccentricity": 0.0027049,
        "meta_inclination": 86.2845,
        "meta_ra_of_asc_node": 343.8464,
        "meta_arg_of_pericenter": 175.3009,
        "meta_mean_anomaly": 198.4852,
        "meta_ephemeris_type": 0,
        "meta_classification_type": "U",
        "meta_norad_cat_id": 34146,
        "meta_element_set_no": 999,
        "meta_rev_at_epoch": 88302,
        "meta_bstar": 0.00092782,
        "meta_mean_motion_dot": 3.563e-05,
        "meta_mean_motion_ddot": 0,
        "tle_line1": "1 34146U 97051DZ  25360.21590198  .00003563  00000+0  92782-3 0  9998",
        "tle_line2": "2 34146  86.2845 343.8464 0027049 175.3009 198.4852 14.49135058883020"
      },
      "geometry": {
        "type": "Point",
        "coordinates": [
          -13.41372992136741,
          41.194315138716945
        ]
      }
    },
    {
      "type": "Feature",
      "properties": {
        "norad_id": 34159,
        "name": "IRIDIUM 33 DEB",
        "group": "iridium-33-debris",
        "lat": -80.25983331323734,
        "lon": 20.153267695044057,
        "alt_km": 757.0415050033635,
        "timestamp": "2025-12-27T09:28:56.862400+00:00",
        "meta_object_name": "IRIDIUM 33 DEB",
        "meta_object_id": "1997-051EN",
        "meta_epoch": "2025-12-27T03:10:49.605312",
        "meta_mean_motion": 14.38529458,
        "meta_eccentricity": 0.0026307,
        "meta_inclination": 86.3489,
        "meta_ra_of_asc_node": 42.1028,
        "meta_arg_of_pericenter": 236.8927,
        "meta_mean_anomaly": 122.9746,
        "meta_ephemeris_type": 0,
        "meta_classification_type": "U",
        "meta_norad_cat_id": 34159,
        "meta_element_set_no": 999,
        "meta_rev_at_epoch": 88166,
        "meta_bstar": 0.00044785,
        "meta_mean_motion_dot": 1.393e-05,
        "meta_mean_motion_ddot": 0,
        "tle_line1": "1 34159U 97051EN  25361.13251858  .00001393  00000+0  44785-3 0  9990",
        "tle_line2": "2 34159  86.3489  42.1028 0026307 236.8927 122.9746 14.38529458881663"
      },
      "geometry": {
        "type": "Point",
        "coordinates": [
          20.153267695044057,
          -80.25983331323734
        ]
      }
    },
    {
      "type": "Feature",
      "properties": {
        "norad_id": 34350,
        "name": "IRIDIUM 33 DEB",
        "group": "iridium-33-debris",
        "lat": -49.39282728186686,
        "lon": -7.849184772309387,
        "alt_km": 760.3537164083273,
        "timestamp": "2025-12-27T09:28:56.862410+00:00",
        "meta_object_name": "IRIDIUM 33 DEB",
        "meta_object_id": "1997-051ES",
        "meta_epoch": "2025-12-26T11:11:35.511072",
        "meta_mean_motion": 14.45418943,
        "meta_eccentricity": 0.0023531,
        "meta_inclination": 86.3274,
        "meta_ra_of_asc_node": 356.8502,
        "meta_arg_of_pericenter": 93.2383,
        "meta_mean_anomaly": 67.9711,
        "meta_ephemeris_type": 0,
        "meta_classification_type": "U",
        "meta_norad_cat_id": 34350,
        "meta_element_set_no": 999,
        "meta_rev_at_epoch": 88491,
        "meta_bstar": 0.00036255,
        "meta_mean_motion_dot": 1.3e-05,
        "meta_mean_motion_ddot": 0,
        "tle_line1": "1 34350U 97051ES  25360.46638323  .00001300  00000+0  36255-3 0  9995",
        "tle_line2": "2 34350  86.3274 356.8502 0023531  93.2383  67.9711 14.45418943884912"
      },
      "geometry": {
        "type": "Point",
        "coordinates": [
          -7.849184772309387,
          -49.39282728186686
        ]
      }
    }
  ]
}